COSMO-SKYMED 1          
1 31598U 07023A   26198.14349656  .00001498  00000+0  13468-3 0  9998
2 31598  97.8848  30.2529 0001589 102.0614 258.0785 14.97225365 34275
COSMOS 2428             
1 31792U 07029A   26197.66556615  .00000266  00000+0  16860-3 0  9992
2 31792  70.9382 292.5844 0007227  78.2595 281.9336 14.12935360982310
SL-16 R/B               
1 31793U 07029B   26198.21892617  .00000252  00000+0  15546-3 0  9995
2 31793  70.9743 260.0986 0001922 256.8892 120.3274 14.14852788983692
KORONAS-FOTON           
1 33504U 09003A   26197.91621368  .00007873  00000+0  15843-3 0  9996
2 33504  82.4312 141.2347 0012032  57.1646 303.0759 15.46326310965699
CZ-2C R/B               
1 37731U 11030B   26197.89433418  .00000445  00000+0  62443-4 0  9996
2 37731  97.8670 152.7487 0050748 290.4727 134.1137 14.81534149809220
H-2A R/B                
1 38341U 12025E   26197.92517588  .00000582  00000+0  57508-4 0  9992
2 38341  98.4846 175.5285 0042579 249.2386 110.4268 14.95839807767538
SHIJIAN-16 (SJ-16)      
1 39358U 13057A   26198.19994812  .00001164  00000+0  11543-3 0  9991
2 39358  74.9745 299.8371 0015695 159.9769 200.2039 14.92676604690823
SL-4 R/B                
1 39679U 14021B   26198.12979330  .00005029  00000+0  10805-3 0  9994
2 39679  51.6063  64.0188 0089584 215.6000 143.8989 15.42505999676237
ALOS-2                  
1 39766U 14029A   26198.23579398  .00000859  00000+0  12183-3 0  9998
2 39766  97.9235 294.9698 0001591  92.9607 267.1786 14.79470570656024
YAOGAN-29               
1 41038U 15069A   26198.20086631 -.00000089  00000+0 -42641-5 0  9999
2 41038  98.0014 226.8797 0000590  10.5016 349.6209 14.83107235575079
ASTRO-H (HITOMI)        
1 41337U 16012A   26198.16558544  .00001226  00000+0  66596-4 0  9998
2 41337  30.9979 240.5599 0009624 195.3017 164.7330 15.10637146571829
HXMT (HUIYAN)           
1 42758U 17034A   26197.99571619  .00002246  00000+0  11653-3 0  9995
2 42758  43.0154  17.0306 0032083 332.0044  27.9078 15.18698236502193
SAOCOM 1A               
1 43641U 18076A   26198.17824848 -.00000381  00000+0 -41364-4 0  9993
2 43641  97.8881  24.4905 0001441  85.1905 274.9473 14.82146739420549
H-2A R/B                
1 43682U 18084L   26198.10048834  .00012582  00000+0  25610-3 0  9992
2 43682  98.8525  83.5493 0020440 293.5341  66.3756 15.46248756425744
SAOCOM 1B               
1 46265U 20059A   26197.93939534  .00000538  00000+0  74093-4 0  9991
2 46265  97.8884  23.3516 0001537  82.2102 277.9286 14.82159769317891
CSS (TIANHE)            
1 48274U 21035A   26197.88145382  .00001197  00000+0  19694-4 0  9990
2 48274  41.4696 141.6126 0002246 302.3597  57.7023 15.58131618297800
COSMOS 2550             
1 48865U 21056A   26198.21547569  .00002714  00000+0  88259-4 0  9999
2 48865  67.1437   9.0715 0008535 270.1263  89.8913 15.33839909283321
CZ-2C R/B               
1 52794U 22058K   26197.97156529  .00026568  00000+0  27450-3 0  9990
2 52794  50.1853   8.2910 0030249  30.0263 330.2439 15.63953565230303
CZ-2C R/B               
1 54039U 22132E   26197.53627737  .00045207  00000+0  30258-3 0  9994
2 54039  97.2889 205.9502 0009201 335.7404  24.3427 15.75115426210560
GSLV R/B                
1 54149U 22138AN  26198.19166392  .00001446  00000+0  12127-3 0  9992
2 54149  87.3816 122.9091 0023309  45.6485 314.6652 14.97387925203301
XRISM                   
1 57800U 23137A   26198.14992013  .00002273  00000+0  12120-3 0  9993
2 57800  31.0009 165.4775 0007867 265.6103  94.3637 15.12677853157405
ACS3                    
1 59588U 24077B   26197.76022213  .00007071  00000+0  49014-2 0  9997
2 59588  97.1749 109.9964 0127345  34.8997 326.0437 13.95288377112163
SPACEMOBILE-003         
1 61045U 24163A   26198.18499986  .00001156  00000+0  66577-4 0  9999
2 61045  52.9669 171.4933 0004573 199.9499 160.1317 15.20710730102336
SPACEMOBILE-005         
1 61046U 24163B   26198.16843051  .00002249  00000+0  11557-3 0  9995
2 61046  52.9760 171.5204 0008601 201.6273 158.4359 15.20722432102325
SPACEMOBILE-001         
1 61047U 24163C   26198.03530450  .00000145  00000+0  21220-4 0  9990
2 61047  52.9725 171.8417 0007094 199.2363 160.8365 15.20743460102309
SPACEMOBILE-002         
1 61048U 24163D   26198.15059249 -.00007183  00000+0 -30774-3 0  9990
2 61048  52.9785 171.3520 0005763 198.8824 161.1957 15.20743440102325
SPACEMOBILE-004         
1 61049U 24163E   26197.34451692  .00012194  00000+0  56003-3 0  9998
2 61049  52.9692 174.8353 0005984 230.9141 129.1322 15.20779499102200
CZ-8A R/B               
1 66004U 25231K   26197.60900077 -.00000035  00000+0  46054-4 0  9994
2 66004  50.0040 274.1439 0116572 327.5851  31.7941 14.30162420 39156
SZ-21 MODULE            
1 66515U 25246C   26197.96673399  .00035792  00000+0  19673-3 0  9993
2 66515  41.4717 121.4946 0008647 232.6437 127.3622 15.78939225 38441
SPACEMOBILE-006         
1 67232U 25309A   26197.39546060  .00000913  00000+0  58828-4 0  9994
2 67232  52.9935 197.8358 0009991 219.1469 140.8802 15.18656625 31031
